HIMAWARI-8              
1 40267U 14060A   24204.55604899 -.00000274  00000+0  00000+0 0  9990
2 40267   0.0293 170.5900 0001216 321.3406 149.7002  1.00269482 35795
